STARLINK-2017
1 17351C 21005C   21326.09079076 -.00009383  00000-0 -62871-3 0  3266
2 17351  53.0530 223.3253 0002238  71.9168  15.5534 15.06404865    18
